TIANMU-1 07             
1 57399U 23101A   26065.57454230  .00008352  00000+0  29795-3 0  9991
2 57399  97.2728 118.5929 0004609 142.4105 217.7458 15.29118809145964
STARLINK-33859          
1 63640U 25083G   26068.23974369  .00014577  00000+0  53806-3 0  9990
2 63640  43.0037   8.1374 0001405 255.8136 104.2559 15.27587944 49990
