[{"OBJECT_NAME":"TIANMU-1 07","OBJECT_ID":"2023-101A","EPOCH":"2026-03-06T13:47:20.454720","MEAN_MOTION":15.29118809,"ECCENTRICITY":0.00046097,"INCLINATION":97.2728,"RA_OF_ASC_NODE":118.5929,"ARG_OF_PERICENTER":142.4105,"MEAN_ANOMALY":217.7458,"EPHEMERIS_TYPE":0,"CLASSIFICATION_TYPE":"U","NORAD_CAT_ID":57399,"ELEMENT_SET_NO":999,"REV_AT_EPOCH":14596,"BSTAR":0.00029794732,"MEAN_MOTION_DOT":8.352e-5,"MEAN_MOTION_DDOT":0},{"OBJECT_NAME":"STARLINK-33859","OBJECT_ID":"2025-083G","EPOCH":"2026-03-09T05:45:13.854816","MEAN_MOTION":15.27587944,"ECCENTRICITY":0.00014059,"INCLINATION":43.0037,"RA_OF_ASC_NODE":8.1374,"ARG_OF_PERICENTER":255.8136,"MEAN_ANOMALY":104.2559,"EPHEMERIS_TYPE":0,"CLASSIFICATION_TYPE":"U","NORAD_CAT_ID":63640,"ELEMENT_SET_NO":999,"REV_AT_EPOCH":4999,"BSTAR":0.00053805516,"MEAN_MOTION_DOT":0.00014577,"MEAN_MOTION_DDOT":0}]
